OBJECT_NAME,OBJECT_ID,EPOCH,MEAN_MOTION,ECCENTRICITY,INCLINATION,RA_OF_ASC_NODE,ARG_OF_PERICENTER,MEAN_ANOMALY,EPHEMERIS_TYPE,CLASSIFICATION_TYPE,NORAD_CAT_ID,ELEMENT_SET_NO,REV_AT_EPOCH,BSTAR,MEAN_MOTION_DOT,MEAN_MOTION_DDOT
ONEWEB-0068,2020-020Y,2026-07-17T10:38:08.217024,13.11442214,.00017938,87.8894,15.0405,92.2607,267.8727,0,U,45446,999,30656,-.16422989E-1,-.5806E-4,0
ONEWEB-0046,2020-020Z,2026-07-17T10:26:07.286784,13.11416721,.00016295,87.8883,15.0458,84.6142,275.5172,0,U,45447,999,30657,-.11761919E-2,-.404E-5,0
ONEWEB-0063,2020-020AA,2026-07-17T11:07:51.078432,13.11418496,.00018969,87.8895,15.0418,81.8864,278.2479,0,U,45448,999,30666,.32091204E-3,.126E-5,0
ONEWEB-0019,2020-020AB,2026-07-17T12:03:36.280800,13.11414981,.00019926,87.8887,15.0184,96.2130,263.9225,0,U,45449,999,30651,-.23887821E-3,-.72E-6,0
ONEWEB-0094,2020-020AC,2026-07-17T10:12:47.286720,13.17648938,.00018298,87.9156,359.8364,100.5779,259.5559,0,U,45450,999,31029,.91429881E-4,.48E-6,0
ONEWEB-0087,2020-020AD,2026-07-17T11:22:06.364128,13.11418052,.00015914,87.8902,15.0164,96.4230,263.7080,0,U,45451,999,30655,.14189062E-2,.516E-5,0
ONEWEB-0082,2020-020AE,2026-07-17T11:17:13.312608,13.11418403,.00013547,87.8895,15.0312,89.4983,270.6300,0,U,45452,999,30664,.97451947E-3,.358E-5,0
ONEWEB-0050,2020-020AF,2026-07-17T13:21:56.493504,14.90475850,.00025843,88.9279,229.0850,168.1524,191.9767,0,U,45453,999,34490,.68217849E-4,.687E-5,0
ONEWEB-0034,2020-020AG,2026-07-17T01:12:08.727264,13.11415180,.00017991,87.8892,15.1239,89.8724,270.2610,0,U,45454,999,30650,-.10424873E-2,-.357E-5,0
ONEWEB-0060,2020-020AH,2026-07-17T11:06:26.040096,13.11418608,.00013092,87.8889,15.0374,123.0699,237.0555,0,U,45455,999,30651,.106117E-3,.5E-6,0
ONEWEB-0086,2020-020AJ,2026-07-17T10:35:41.816544,13.11417472,.00019252,87.8893,15.0395,114.3466,245.7864,0,U,45456,999,30657,-.15351379E-2,-.531E-5,0
ONEWEB-0088,2020-020AK,2026-07-17T11:54:01.715616,13.11415362,.00016871,87.8902,15.0034,79.1998,280.9320,0,U,45457,999,30651,.52813895E-3,.2E-5,0
ONEWEB-0102,2020-100A,2026-07-16T22:37:29.434656,13.12442616,.00020841,87.8964,344.7575,104.1235,256.0125,0,U,47258,999,26863,.86328563E-3,.323E-5,0
ONEWEB-0109,2020-100B,2026-07-17T15:17:42.996480,13.12443215,.00020199,87.8976,344.6056,97.5854,262.5504,0,U,47259,999,26855,.83237471E-3,.312E-5,0
ONEWEB-0110,2020-100C,2026-07-17T08:37:37.595424,13.12443244,.00018398,87.8975,344.6449,105.5985,254.5347,0,U,47260,999,26868,-.11980187E-2,-.418E-5,0
ONEWEB-0111,2020-100D,2026-07-17T09:21:32.576832,13.12444056,.000178,87.8974,344.6574,98.8223,261.3107,0,U,47261,999,26852,.12215004E-2,.452E-5,0
ONEWEB-0114,2020-100E,2026-07-17T15:34:47.379936,13.12441858,.00020674,87.8978,344.6045,95.3782,264.7582,0,U,47262,999,26851,-.2696034E-3,-.84E-6,0
ONEWEB-0117,2020-100F,2026-07-17T15:22:35.863968,13.12441440,.00018944,87.8973,344.5958,98.8717,261.2626,0,U,47263,999,26852,.68819414E-3,.26E-5,0
ONEWEB-0118,2020-100G,2026-07-17T08:52:15.668256,13.12443391,.00019707,87.8972,344.6526,86.9956,273.1398,0,U,47264,999,26868,-.56706811E-3,-.191E-5,0
ONEWEB-0119,2020-100H,2026-07-17T09:28:51.970080,13.12442814,.000187,87.8963,344.6613,95.6643,264.4699,0,U,47265,999,26866,.13002662E-2,.481E-5,0
ONEWEB-0120,2020-100J,2026-07-17T15:32:33.164448,13.12441485,.00020747,87.8964,344.6123,96.8061,263.3303,0,U,47266,999,26872,.31667716E-4,.24E-6,0
ONEWEB-0121,2020-100K,2026-07-16T22:47:14.628768,13.12441376,.00015798,87.8974,344.7403,101.4669,258.6638,0,U,47267,999,26854,.5251463E-3,.202E-5,0
ONEWEB-0122,2020-100L,2026-07-17T09:37:23.954880,13.12441402,.00020408,87.8976,344.6554,101.4671,258.6687,0,U,47268,999,26851,.12740007E-2,.471E-5,0
ONEWEB-0123,2020-100M,2026-07-16T22:32:36.538656,13.12442584,.00018917,87.8962,344.7508,95.5280,264.6065,0,U,47269,999,26859,.11179575E-2,.415E-5,0
ONEWEB-0124,2020-100N,2026-07-17T09:16:39.577152,13.12443869,.00017673,87.8962,344.6646,97.6954,262.4376,0,U,47270,999,26853,.89450387E-3,.335E-5,0
ONEWEB-0125,2020-100P,2026-07-17T08:44:55.856832,13.12443703,.00015851,87.8974,344.6562,91.8366,268.2944,0,U,47271,999,26859,-.95777108E-3,-.332E-5,0
ONEWEB-0126,2020-100Q,2026-07-17T09:14:26.143584,13.12443559,.00019927,87.8967,344.6658,94.5169,265.6187,0,U,47272,999,26866,.75266464E-3,.283E-5,0
ONEWEB-0127,2020-100R,2026-07-16T23:16:30.620640,13.12442111,.00020149,87.8962,344.7458,96.1240,264.0118,0,U,47273,999,26863,-.13126216E-2,-.459E-5,0
ONEWEB-0128,2020-100S,2026-07-17T08:57:08.133120,13.12444301,.000184,87.8962,344.6792,106.0524,254.0808,0,U,47274,999,26870,-.30115212E-3,-.96E-6,0
ONEWEB-0129,2020-100T,2026-07-17T08:27:51.648768,13.12441986,.00029672,87.8973,344.6599,91.0993,269.0476,0,U,47275,999,26863,-.10304131E-2,-.358E-5,0
